{"fetched_at":"2026-03-30T06:02:59Z","count":15439,"tles":[{"name":"STARLINK-32887","line1":"1 62964U 25029S   26087.84950214  .00025114  00000+0  85702-3 0  9998","line2":"2 62964  53.1596 141.1440 0001598  71.9237 288.1938 15.30206244 64281","category":"Starlink"}]}